{"type": "FeatureCollection", "features": [ {"type": "Feature", "properties": {"norad_id": 48077, "name": "ONEWEB-0169", "group": "active", "lat": -25.43075910602033, "lon": -179.41424962259538, "alt_km": 1215.6790284158978, "timestamp": "2025-12-01T03:58:49.252659+00:00", "meta": {"OBJECT_NAME": "ONEWEB-0169", "OBJECT_ID": "2021-025AM", "EPOCH": "2025-11-30T14:08:25.704960", "MEAN_MOTION": 13.13472213, "ECCENTRICITY": 0.0001759, "INCLINATION": 87.899, "RA_OF_ASC_NODE": 359.7002, "ARG_OF_PERICENTER": 101.6063, "MEAN_ANOMALY": 258.5264, "EPHEMERIS_TYPE": 0, "CLASSIFICATION_TYPE": "U", "NORAD_CAT_ID": 48077, "ELEMENT_SET_NO": 999, "REV_AT_EPOCH": 22623, "BSTAR": 0.00050899, "MEAN_MOTION_DOT": 1.99e-06, "MEAN_MOTION_DDOT": 0, "GROUP": "active"}, "tle": {"line1": "1 48077U 21025AM  25334.58918640  .00000199  00000+0  50899-3 0  9996", "line2": "2 48077  87.8990 359.7002 0001759 101.6063 258.5264 13.13472213226238"}}, "geometry": {"type": "Point", "coordinates": [-179.41424962259538, -25.43075910602033]}}, {"type": "Feature", "properties": {"norad_id": 48157, "name": "SHIYAN-6 03 (SY-6 03)", "group": "active", "lat": -47.244926466588055, "lon": -6.08341102235133, "alt_km": 966.0438698441267, "timestamp": "2025-12-01T03:58:49.252682+00:00", "meta": {"OBJECT_NAME": "SHIYAN-6 03 (SY-6 03)", "OBJECT_ID": "2021-028A", "EPOCH": "2025-11-30T21:14:28.105728", "MEAN_MOTION": 13.77585982, "ECCENTRICITY": 0.0045529, "INCLINATION": 99.5349, "RA_OF_ASC_NODE": 343.1611, "ARG_OF_PERICENTER": 245.5484, "MEAN_ANOMALY": 114.0914, "EPHEMERIS_TYPE": 0, "CLASSIFICATION_TYPE": "U", "NORAD_CAT_ID": 48157, "ELEMENT_SET_NO": 999, "REV_AT_EPOCH": 23220, "BSTAR": 5.5387e-05, "MEAN_MOTION_DOT": 1e-07, "MEAN_MOTION_DDOT": 0, "GROUP": "active"}, "tle": {"line1": "1 48157U 21028A   25334.88504752  .00000010  00000+0  55387-4 0  9996", "line2": "2 48157  99.5349 343.1611 0045529 245.5484 114.0914 13.77585982232206"}}, "geometry": {"type": "Point", "coordinates": [-6.08341102235133, -47.244926466588055]}}, {"type": "Feature", "properties": {"norad_id": 48210, "name": "ONEWEB-0176", "group": "active", "lat": -34.57280012288766, "lon": 150.60255618702632, "alt_km": 1212.921194492049, "timestamp": "2025-12-01T03:58:49.252702+00:00", "meta": {"OBJECT_NAME": "ONEWEB-0176", "OBJECT_ID": "2021-031A", "EPOCH": "2025-11-30T17:45:30.559392", "MEAN_MOTION": 13.14503513, "ECCENTRICITY": 0.0001846, "INCLINATION": 87.8983, "RA_OF_ASC_NODE": 329.2373, "ARG_OF_PERICENTER": 84.1692, "MEAN_ANOMALY": 275.9648, "EPHEMERIS_TYPE": 0, "CLASSIFICATION_TYPE": "U", "NORAD_CAT_ID": 48210, "ELEMENT_SET_NO": 999, "REV_AT_EPOCH": 22224, "BSTAR": 0.00033645, "MEAN_MOTION_DOT": 1.38e-06, "MEAN_MOTION_DDOT": 0, "GROUP": "active"}, "tle": {"line1": "1 48210U 21031A   25334.73993703  .00000138  00000+0  33645-3 0  9995", "line2": "2 48210  87.8983 329.2373 0001846  84.1692 275.9648 13.14503513222247"}}, "geometry": {"type": "Point", "coordinates": [150.60255618702632, -34.57280012288766]}}, {"type": "Feature", "properties": {"norad_id": 48211, "name": "ONEWEB-0184", "group": "active", "lat": -18.128286734212548, "lon": -31.556415278867238, "alt_km": 1210.7683798046673, "timestamp": "2025-12-01T03:58:49.252722+00:00", "meta": {"OBJECT_NAME": "ONEWEB-0184", "OBJECT_ID": "2021-031B", "EPOCH": "2025-11-30T11:37:51.486816", "MEAN_MOTION": 13.14502914, "ECCENTRICITY": 0.00025077, "INCLINATION": 87.8998, "RA_OF_ASC_NODE": 329.2674, "ARG_OF_PERICENTER": 74.9178, "MEAN_ANOMALY": 285.2229, "EPHEMERIS_TYPE": 0, "CLASSIFICATION_TYPE": "U", "NORAD_CAT_ID": 48211, "ELEMENT_SET_NO": 999, "REV_AT_EPOCH": 22218, "BSTAR": -0.00043921201, "MEAN_MOTION_DOT": -1.5e-06, "MEAN_MOTION_DDOT": 0, "GROUP": "active"}, "tle": {"line1": "1 48211U 21031B   25334.48462369 -.00000150  00000+0 -43921-3 0  9991", "line2": "2 48211  87.8998 329.2674 0002507  74.9178 285.2229 13.14502914222185"}}, "geometry": {"type": "Point", "coordinates": [-31.556415278867238, -18.128286734212548]}}, {"type": "Feature", "properties": {"norad_id": 48212, "name": "ONEWEB-0179", "group": "active", "lat": 59.04271844339763, "lon": 145.63097646225953, "alt_km": 1199.085315796544, "timestamp": "2025-12-01T03:58:49.252749+00:00", "meta": {"OBJECT_NAME": "ONEWEB-0179", "OBJECT_ID": "2021-031C", "EPOCH": "2025-11-30T16:24:24.831072", "MEAN_MOTION": 13.1450118, "ECCENTRICITY": 0.0001696, "INCLINATION": 87.8984, "RA_OF_ASC_NODE": 329.2363, "ARG_OF_PERICENTER": 87.3911, "MEAN_ANOMALY": 272.7413, "EPHEMERIS_TYPE": 0, "CLASSIFICATION_TYPE": "U", "NORAD_CAT_ID": 48212, "ELEMENT_SET_NO": 999, "REV_AT_EPOCH": 22225, "BSTAR": 0.00059035, "MEAN_MOTION_DOT": 2.32e-06, "MEAN_MOTION_DDOT": 0, "GROUP": "active"}, "tle": {"line1": "1 48212U 21031C   25334.68362073  .00000232  00000+0  59035-3 0  9997", "line2": "2 48212  87.8984 329.2363 0001696  87.3911 272.7413 13.14501180222255"}}, "geometry": {"type": "Point", "coordinates": [145.63097646225953, 59.04271844339763]}}, {"type": "Feature", "properties": {"norad_id": 48213, "name": "ONEWEB-0180", "group": "active", "lat": -33.06152783072997, "lon": -32.23071882087078, "alt_km": 1212.313898332537, "timestamp": "2025-12-01T03:58:49.252767+00:00", "meta": {"OBJECT_NAME": "ONEWEB-0180", "OBJECT_ID": "2021-031D", "EPOCH": "2025-11-30T11:42:24.751872", "MEAN_MOTION": 13.14503064, "ECCENTRICITY": 0.00017206, "INCLINATION": 87.8999, "RA_OF_ASC_NODE": 329.2727, "ARG_OF_PERICENTER": 77.1742, "MEAN_ANOMALY": 282.958, "EPHEMERIS_TYPE": 0, "CLASSIFICATION_TYPE": "U", "NORAD_CAT_ID": 48213, "ELEMENT_SET_NO": 999, "REV_AT_EPOCH": 22211, "BSTAR": -0.00054067905, "MEAN_MOTION_DOT": -1.88e-06, "MEAN_MOTION_DDOT": 0, "GROUP": "active"}, "tle": {"line1": "1 48213U 21031D   25334.48778648 -.00000188  00000+0 -54068-3 0  9998", "line2": "2 48213  87.8999 329.2727 0001720  77.1742 282.9580 13.14503064222119"}}, "geometry": {"type": "Point", "coordinates": [-32.23071882087078, -33.06152783072997]}}, {"type": "Feature", "properties": {"norad_id": 48214, "name": "ONEWEB-0218", "group": "active", "lat": -42.06346799662717, "lon": 151.03634668849125, "alt_km": 1214.0200680300231, "timestamp": "2025-12-01T03:58:49.252778+00:00", "meta": {"OBJECT_NAME": "ONEWEB-0218", "OBJECT_ID": "2021-031E", "EPOCH": "2025-11-30T17:43:13.348416", "MEAN_MOTION": 13.14501979, "ECCENTRICITY": 0.000235, "INCLINATION": 87.8994, "RA_OF_ASC_NODE": 329.2235, "ARG_OF_PERICENTER": 67.7528, "MEAN_ANOMALY": 292.385, "EPHEMERIS_TYPE": 0, "CLASSIFICATION_TYPE": "U", "NORAD_CAT_ID": 48214, "ELEMENT_SET_NO": 999, "REV_AT_EPOCH": 22230, "BSTAR": 0.00040005, "MEAN_MOTION_DOT": 1.61e-06, "MEAN_MOTION_DDOT": 0, "GROUP": "active"}, "tle": {"line1": "1 48214U 21031E   25334.73834894  .00000161  00000+0  40005-3 0  9998", "line2": "2 48214  87.8994 329.2235 0002350  67.7528 292.3850 13.14501979222305"}}, "geometry": {"type": "Point", "coordinates": [151.03634668849125, -42.06346799662717]}}, {"type": "Feature", "properties": {"norad_id": 48215, "name": "ONEWEB-0209", "group": "active", "lat": -85.02507899744474, "lon": -55.77131283311622, "alt_km": 1214.4384968133345, "timestamp": "2025-12-01T03:58:49.252788+00:00", "meta": {"OBJECT_NAME": "ONEWEB-0209", "OBJECT_ID": "2021-031F", "EPOCH": "2025-11-30T10:08:47.418720", "MEAN_MOTION": 13.14503464, "ECCENTRICITY": 0.0001591, "INCLINATION": 87.8985, "RA_OF_ASC_NODE": 329.3241, "ARG_OF_PERICENTER": 83.9509, "MEAN_ANOMALY": 276.1802, "EPHEMERIS_TYPE": 0, "CLASSIFICATION_TYPE": "U", "NORAD_CAT_ID": 48215, "ELEMENT_SET_NO": 999, "REV_AT_EPOCH": 22226, "BSTAR": 2.7937447e-05, "MEAN_MOTION_DOT": 2.3e-07, "MEAN_MOTION_DDOT": 0, "GROUP": "active"}, "tle": {"line1": "1 48215U 21031F   25334.42277105  .00000023  00000+0  27937-4 0  9998", "line2": "2 48215  87.8985 329.3241 0001591  83.9509 276.1802 13.14503464222262"}}, "geometry": {"type": "Point", "coordinates": [-55.77131283311622, -85.02507899744474]}}, {"type": "Feature", "properties": {"norad_id": 48216, "name": "ONEWEB-0198", "group": "active", "lat": -11.248096634921206, "lon": -31.245269743935236, "alt_km": 1209.865997675577, "timestamp": "2025-12-01T03:58:49.252799+00:00", "meta": {"OBJECT_NAME": "ONEWEB-0198", "OBJECT_ID": "2021-031G", "EPOCH": "2025-11-30T11:35:45.705696", "MEAN_MOTION": 13.14503719, "ECCENTRICITY": 0.00017984, "INCLINATION": 87.8984, "RA_OF_ASC_NODE": 329.309, "ARG_OF_PERICENTER": 73.7567, "MEAN_ANOMALY": 286.3761, "EPHEMERIS_TYPE": 0, "CLASSIFICATION_TYPE": "U", "NORAD_CAT_ID": 48216, "ELEMENT_SET_NO": 999, "REV_AT_EPOCH": 22238, "BSTAR": -0.00070542662, "MEAN_MOTION_DOT": -2.49e-06, "MEAN_MOTION_DDOT": 0, "GROUP": "active"}, "tle": {"line1": "1 48216U 21031G   25334.48316789 -.00000249  00000+0 -70543-3 0  9999", "line2": "2 48216  87.8984 329.3090 0001798  73.7567 286.3761 13.14503719222387"}}, "geometry": {"type": "Point", "coordinates": [-31.245269743935236, -11.248096634921206]}}, {"type": "Feature", "properties": {"norad_id": 48217, "name": "ONEWEB-0189", "group": "active", "lat": -70.41654912309417, "lon": -36.77565154397094, "alt_km": 1214.2735711960222, "timestamp": "2025-12-01T03:58:49.252820+00:00", "meta": {"OBJECT_NAME": "ONEWEB-0189", "OBJECT_ID": "2021-031H", "EPOCH": "2025-11-30T10:04:13.387296", "MEAN_MOTION": 13.14504277, "ECCENTRICITY": 0.00018073, "INCLINATION": 87.8989, "RA_OF_ASC_NODE": 329.2954, "ARG_OF_PERICENTER": 76.0985, "MEAN_ANOMALY": 284.0345, "EPHEMERIS_TYPE": 0, "CLASSIFICATION_TYPE": "U", "NORAD_CAT_ID": 48217, "ELEMENT_SET_NO": 999, "REV_AT_EPOCH": 22211, "BSTAR": -0.00010841951, "MEAN_MOTION_DOT": -2.7e-07, "MEAN_MOTION_DDOT": 0, "GROUP": "active"}, "tle": {"line1": "1 48217U 21031H   25334.41959939 -.00000027  00000+0 -10842-3 0  9993", "line2": "2 48217  87.8989 329.2954 0001807  76.0985 284.0345 13.14504277222116"}}, "geometry": {"type": "Point", "coordinates": [-36.77565154397094, -70.41654912309417]}}]}